[{"OBJECT_NAME":"TIANMU-1 22","OBJECT_ID":"2023-208D","EPOCH":"2026-03-09T22:39:05.738688","MEAN_MOTION":15.29457749,"ECCENTRICITY":0.00031332,"INCLINATION":97.4379,"RA_OF_ASC_NODE":184.9419,"ARG_OF_PERICENTER":351.9312,"MEAN_ANOMALY":8.1877,"EPHEMERIS_TYPE":0,"CLASSIFICATION_TYPE":"U","NORAD_CAT_ID":58663,"ELEMENT_SET_NO":999,"REV_AT_EPOCH":12215,"BSTAR":0.00038239675,"MEAN_MOTION_DOT":0.00010851,"MEAN_MOTION_DDOT":0},{"OBJECT_NAME":"STARLINK-35387","OBJECT_ID":"2025-224AD","EPOCH":"2026-03-09T23:24:46.997280","MEAN_MOTION":15.30207114,"ECCENTRICITY":0.00010117,"INCLINATION":53.1607,"RA_OF_ASC_NODE":10.3269,"ARG_OF_PERICENTER":99.2822,"MEAN_ANOMALY":260.8294,"EPHEMERIS_TYPE":0,"CLASSIFICATION_TYPE":"U","NORAD_CAT_ID":65909,"ELEMENT_SET_NO":999,"REV_AT_EPOCH":2486,"BSTAR":0.0010077245,"MEAN_MOTION_DOT":0.00029612,"MEAN_MOTION_DDOT":0}]
